ISS (ZARYA)             
1 25544U 98067A   26076.83874733  .00009567  00000+0  18567-3 0  9990
2 25544  51.6336  32.0723 0006232 202.9067 157.1644 15.48349303557591
POISK                   
1 36086U 09060A   26076.83874733  .00009567  00000+0  18567-3 0  9998
2 36086  51.6336  32.0723 0006232 202.9067 157.1644 15.48349303557358
CSS (TIANHE)            
1 48274U 21035A   26076.58544780  .00021250  00000+0  24801-3 0  9995
2 48274  41.4671 160.1044 0006145 321.5629  38.4771 15.61097750278840
ISS (NAUKA)             
1 49044U 21066A   26076.83874733  .00009567  00000+0  18567-3 0  9996
2 49044  51.6336  32.0723 0006232 202.9067 157.1644 15.48349303557390
FREGAT DEB              
1 49271U 11037PF  26076.82279432  .00010779  00000+0  15275-1 0  9997
2 49271  51.6496 276.3425 0964108  78.0448 292.6707 12.40466807213708
CSS (WENTIAN)           
1 53239U 22085A   26076.58544780  .00021250  00000+0  24801-3 0  9998
2 53239  41.4671 160.1044 0006145 321.5629  38.4771 15.61097750278847
CSS (MENGTIAN)          
1 54216U 22143A   26076.58544780  .00021250  00000+0  24801-3 0  9999
2 54216  41.4671 160.1044 0006145 321.5629  38.4771 15.61097750278843
TIANZHOU-9              
1 64786U 25149A   26076.58544780  .00021250  00000+0  24801-3 0  9991
2 64786  41.4671 160.1044 0006145 321.5629  38.4771 15.61097750278846
PROGRESS-MS 32          
1 65586U 25204A   26076.38694946  .00012661  00000+0  24296-3 0  9994
2 65586  51.6338  34.3055 0006232 201.4845 158.5882 15.48344038554501
YOTSUBA-KULOVER         
1 65941U 98067XN  26076.09475415  .00227916  00000+0  96443-3 0  9996
2 65941  51.6214  18.7815 0004920 122.2013 237.9468 15.84172953 24675
E-KAGAKU-1              
1 65943U 98067XQ  26076.54283053  .00204475  00000+0  88026-3 0  9996
2 65943  51.6236  16.5421 0005559 129.3023 230.8474 15.83870552 24744
HRC MONOBLOCK CAMERA    
1 66052U 98067XR  26076.88594315  .00038891  00000+0  42208-3 0  9990
2 66052  51.6289  24.1369 0003894 130.1231 230.0105 15.63103133 23677
