CCSDS_OMM_VERS = 2.0
CREATION_DATE  = 
ORIGINATOR     = 

OBJECT_NAME    = ISS (ZARYA)
OBJECT_ID      = 1998-067A
CENTER_NAME    = EARTH
REF_FRAME      = TEME
TIME_SYSTEM    = UTC
MEAN_ELEMENT_THEORY = SGP/SGP4

EPOCH          = 2026-03-17T20:07:47.769312
MEAN_MOTION    = 15.48349303
ECCENTRICITY   = .0006232
INCLINATION    = 51.6336
RA_OF_ASC_NODE = 32.0723
ARG_OF_PERICENTER = 202.9067
MEAN_ANOMALY   = 157.1644

EPHEMERIS_TYPE = 0
CLASSIFICATION_TYPE = U
NORAD_CAT_ID   = 25544
ELEMENT_SET_NO = 999
REV_AT_EPOCH   = 55759
BSTAR          = .18567E-3
MEAN_MOTION_DOT = .9567E-4
MEAN_MOTION_DDOT = 0

CCSDS_OMM_VERS = 2.0
CREATION_DATE  = 
ORIGINATOR     = 

OBJECT_NAME    = POISK
OBJECT_ID      = 2009-060A
CENTER_NAME    = EARTH
REF_FRAME      = TEME
TIME_SYSTEM    = UTC
MEAN_ELEMENT_THEORY = SGP/SGP4

EPOCH          = 2026-03-17T20:07:47.769312
MEAN_MOTION    = 15.48349303
ECCENTRICITY   = .0006232
INCLINATION    = 51.6336
RA_OF_ASC_NODE = 32.0723
ARG_OF_PERICENTER = 202.9067
MEAN_ANOMALY   = 157.1644

EPHEMERIS_TYPE = 0
CLASSIFICATION_TYPE = U
NORAD_CAT_ID   = 36086
ELEMENT_SET_NO = 999
REV_AT_EPOCH   = 55735
BSTAR          = .18567E-3
MEAN_MOTION_DOT = .9567E-4
MEAN_MOTION_DDOT = 0

CCSDS_OMM_VERS = 2.0
CREATION_DATE  = 
ORIGINATOR     = 

OBJECT_NAME    = CSS (TIANHE)
OBJECT_ID      = 2021-035A
CENTER_NAME    = EARTH
REF_FRAME      = TEME
TIME_SYSTEM    = UTC
MEAN_ELEMENT_THEORY = SGP/SGP4

EPOCH          = 2026-03-17T14:03:02.689920
MEAN_MOTION    = 15.61097750
ECCENTRICITY   = .0006145
INCLINATION    = 41.4671
RA_OF_ASC_NODE = 160.1044
ARG_OF_PERICENTER = 321.5629
MEAN_ANOMALY   = 38.4771

EPHEMERIS_TYPE = 0
CLASSIFICATION_TYPE = U
NORAD_CAT_ID   = 48274
ELEMENT_SET_NO = 999
REV_AT_EPOCH   = 27884
BSTAR          = .24801E-3
MEAN_MOTION_DOT = .2125E-3
MEAN_MOTION_DDOT = 0

CCSDS_OMM_VERS = 2.0
CREATION_DATE  = 
ORIGINATOR     = 

OBJECT_NAME    = ISS (NAUKA)
OBJECT_ID      = 2021-066A
CENTER_NAME    = EARTH
REF_FRAME      = TEME
TIME_SYSTEM    = UTC
MEAN_ELEMENT_THEORY = SGP/SGP4

EPOCH          = 2026-03-17T20:07:47.769312
MEAN_MOTION    = 15.48349303
ECCENTRICITY   = .0006232
INCLINATION    = 51.6336
RA_OF_ASC_NODE = 32.0723
ARG_OF_PERICENTER = 202.9067
MEAN_ANOMALY   = 157.1644

EPHEMERIS_TYPE = 0
CLASSIFICATION_TYPE = U
NORAD_CAT_ID   = 49044
ELEMENT_SET_NO = 999
REV_AT_EPOCH   = 55739
BSTAR          = .18567E-3
MEAN_MOTION_DOT = .9567E-4
MEAN_MOTION_DDOT = 0

CCSDS_OMM_VERS = 2.0
CREATION_DATE  = 
ORIGINATOR     = 

OBJECT_NAME    = FREGAT DEB
OBJECT_ID      = 2011-037PF
CENTER_NAME    = EARTH
REF_FRAME      = TEME
TIME_SYSTEM    = UTC
MEAN_ELEMENT_THEORY = SGP/SGP4

EPOCH          = 2026-03-17T19:44:49.429248
MEAN_MOTION    = 12.40466807
ECCENTRICITY   = .0964108
INCLINATION    = 51.6496
RA_OF_ASC_NODE = 276.3425
ARG_OF_PERICENTER = 78.0448
MEAN_ANOMALY   = 292.6707

EPHEMERIS_TYPE = 0
CLASSIFICATION_TYPE = U
NORAD_CAT_ID   = 49271
ELEMENT_SET_NO = 999
REV_AT_EPOCH   = 21370
BSTAR          = .15275E-1
MEAN_MOTION_DOT = .10779E-3
MEAN_MOTION_DDOT = 0

CCSDS_OMM_VERS = 2.0
CREATION_DATE  = 
ORIGINATOR     = 

OBJECT_NAME    = CSS (WENTIAN)
OBJECT_ID      = 2022-085A
CENTER_NAME    = EARTH
REF_FRAME      = TEME
TIME_SYSTEM    = UTC
MEAN_ELEMENT_THEORY = SGP/SGP4

EPOCH          = 2026-03-17T14:03:02.689920
MEAN_MOTION    = 15.61097750
ECCENTRICITY   = .0006145
INCLINATION    = 41.4671
RA_OF_ASC_NODE = 160.1044
ARG_OF_PERICENTER = 321.5629
MEAN_ANOMALY   = 38.4771

EPHEMERIS_TYPE = 0
CLASSIFICATION_TYPE = U
NORAD_CAT_ID   = 53239
ELEMENT_SET_NO = 999
REV_AT_EPOCH   = 27884
BSTAR          = .24801E-3
MEAN_MOTION_DOT = .2125E-3
MEAN_MOTION_DDOT = 0

CCSDS_OMM_VERS = 2.0
CREATION_DATE  = 
ORIGINATOR     = 

OBJECT_NAME    = CSS (MENGTIAN)
OBJECT_ID      = 2022-143A
CENTER_NAME    = EARTH
REF_FRAME      = TEME
TIME_SYSTEM    = UTC
MEAN_ELEMENT_THEORY = SGP/SGP4

EPOCH          = 2026-03-17T14:03:02.689920
MEAN_MOTION    = 15.61097750
ECCENTRICITY   = .0006145
INCLINATION    = 41.4671
RA_OF_ASC_NODE = 160.1044
ARG_OF_PERICENTER = 321.5629
MEAN_ANOMALY   = 38.4771

EPHEMERIS_TYPE = 0
CLASSIFICATION_TYPE = U
NORAD_CAT_ID   = 54216
ELEMENT_SET_NO = 999
REV_AT_EPOCH   = 27884
BSTAR          = .24801E-3
MEAN_MOTION_DOT = .2125E-3
MEAN_MOTION_DDOT = 0

CCSDS_OMM_VERS = 2.0
CREATION_DATE  = 
ORIGINATOR     = 

OBJECT_NAME    = TIANZHOU-9
OBJECT_ID      = 2025-149A
CENTER_NAME    = EARTH
REF_FRAME      = TEME
TIME_SYSTEM    = UTC
MEAN_ELEMENT_THEORY = SGP/SGP4

EPOCH          = 2026-03-17T14:03:02.689920
MEAN_MOTION    = 15.61097750
ECCENTRICITY   = .0006145
INCLINATION    = 41.4671
RA_OF_ASC_NODE = 160.1044
ARG_OF_PERICENTER = 321.5629
MEAN_ANOMALY   = 38.4771

EPHEMERIS_TYPE = 0
CLASSIFICATION_TYPE = U
NORAD_CAT_ID   = 64786
ELEMENT_SET_NO = 999
REV_AT_EPOCH   = 27884
BSTAR          = .24801E-3
MEAN_MOTION_DOT = .2125E-3
MEAN_MOTION_DDOT = 0

CCSDS_OMM_VERS = 2.0
CREATION_DATE  = 
ORIGINATOR     = 

OBJECT_NAME    = PROGRESS-MS 32
OBJECT_ID      = 2025-204A
CENTER_NAME    = EARTH
REF_FRAME      = TEME
TIME_SYSTEM    = UTC
MEAN_ELEMENT_THEORY = SGP/SGP4

EPOCH          = 2026-03-17T09:17:12.433344
MEAN_MOTION    = 15.48344038
ECCENTRICITY   = .00062325
INCLINATION    = 51.6338
RA_OF_ASC_NODE = 34.3055
ARG_OF_PERICENTER = 201.4845
MEAN_ANOMALY   = 158.5882

EPHEMERIS_TYPE = 0
CLASSIFICATION_TYPE = U
NORAD_CAT_ID   = 65586
ELEMENT_SET_NO = 999
REV_AT_EPOCH   = 55450
BSTAR          = .24295645E-3
MEAN_MOTION_DOT = .12661E-3
MEAN_MOTION_DDOT = 0

CCSDS_OMM_VERS = 2.0
CREATION_DATE  = 
ORIGINATOR     = 

OBJECT_NAME    = YOTSUBA-KULOVER
OBJECT_ID      = 1998-067XN
CENTER_NAME    = EARTH
REF_FRAME      = TEME
TIME_SYSTEM    = UTC
MEAN_ELEMENT_THEORY = SGP/SGP4

EPOCH          = 2026-03-17T02:16:26.758560
MEAN_MOTION    = 15.84172953
ECCENTRICITY   = .00049207
INCLINATION    = 51.6214
RA_OF_ASC_NODE = 18.7815
ARG_OF_PERICENTER = 122.2013
MEAN_ANOMALY   = 237.9468

EPHEMERIS_TYPE = 0
CLASSIFICATION_TYPE = U
NORAD_CAT_ID   = 65941
ELEMENT_SET_NO = 999
REV_AT_EPOCH   = 2467
BSTAR          = .96443436E-3
MEAN_MOTION_DOT = .227916E-2
MEAN_MOTION_DDOT = 0

CCSDS_OMM_VERS = 2.0
CREATION_DATE  = 
ORIGINATOR     = 

OBJECT_NAME    = E-KAGAKU-1
OBJECT_ID      = 1998-067XQ
CENTER_NAME    = EARTH
REF_FRAME      = TEME
TIME_SYSTEM    = UTC
MEAN_ELEMENT_THEORY = SGP/SGP4

EPOCH          = 2026-03-17T13:01:40.557792
MEAN_MOTION    = 15.83870552
ECCENTRICITY   = .00055592
INCLINATION    = 51.6236
RA_OF_ASC_NODE = 16.5421
ARG_OF_PERICENTER = 129.3023
MEAN_ANOMALY   = 230.8474

EPHEMERIS_TYPE = 0
CLASSIFICATION_TYPE = U
NORAD_CAT_ID   = 65943
ELEMENT_SET_NO = 999
REV_AT_EPOCH   = 2474
BSTAR          = .88025992E-3
MEAN_MOTION_DOT = .204475E-2
MEAN_MOTION_DDOT = 0

CCSDS_OMM_VERS = 2.0
CREATION_DATE  = 
ORIGINATOR     = 

OBJECT_NAME    = HRC MONOBLOCK CAMERA
OBJECT_ID      = 1998-067XR
CENTER_NAME    = EARTH
REF_FRAME      = TEME
TIME_SYSTEM    = UTC
MEAN_ELEMENT_THEORY = SGP/SGP4

EPOCH          = 2026-03-17T21:15:45.488160
MEAN_MOTION    = 15.63103133
ECCENTRICITY   = .0003894
INCLINATION    = 51.6289
RA_OF_ASC_NODE = 24.1369
ARG_OF_PERICENTER = 130.1231
MEAN_ANOMALY   = 230.0105

EPHEMERIS_TYPE = 0
CLASSIFICATION_TYPE = U
NORAD_CAT_ID   = 66052
ELEMENT_SET_NO = 999
REV_AT_EPOCH   = 2367
BSTAR          = .42208E-3
MEAN_MOTION_DOT = .38891E-3
MEAN_MOTION_DDOT = 0

